<?xml version="1.0"?><kml><Document>
<Folder><name>921 W Artesia Blvd</name><Placemark><name>1</name><Point><coordinates>-118.2388,33.87496</coordinates></Point></Placemark><Placemark><name>7319-028-057</name></Placemark></Folder>
<Folder><name>2929-2931 California St</name><Placemark><name>2</name><Point><coordinates>-118.339,33.835</coordinates></Point></Placemark><Placemark><name>7352-009-038</name></Placemark></Folder>
<Folder><name>19200 S Western Ave</name><Placemark><name>3</name><Point><coordinates>-118.309,33.856</coordinates></Point></Placemark><Placemark><name>7351-003-013</name></Placemark></Folder>
<Folder><name>19520 Wilmington Ave</name><Placemark><name>4</name><Point><coordinates>-118.239,33.851</coordinates></Point></Placemark><Placemark><name>7318-020-035</name></Placemark></Folder>
</Document></kml>
